{
  "type": "FeatureCollection",
  "features": [
    {
      "type": "Feature",
      "properties": {},
      "geometry": {
        "type": "Polygon",
        "coordinates": [
          [
            [
              -173.85166746395305,
              61.47637160759919
            ],
            [
              -94.655084,
              75.2598133
            ],
            [
              -17.519442422245675,
              61.190933147410846
            ],
            [
              -68.04498458313368,
              25.67543057797711
            ],
            [
              -123.73923184576739,
              25.772685438753484
            ],
            [
              -173.85166746395305,
              61.47637160759919
            ]
          ]
        ]
      }
    }
  ]
}